[{"OBJECT_NAME":"STARLINK-2103","OBJECT_ID":"2021-005AL","EPOCH":"2026-03-09T01:58:52.385664","MEAN_MOTION":15.31044749,"ECCENTRICITY":0.00012882,"INCLINATION":53.1613,"RA_OF_ASC_NODE":17.1416,"ARG_OF_PERICENTER":95.4629,"MEAN_ANOMALY":264.6519,"EPHEMERIS_TYPE":0,"CLASSIFICATION_TYPE":"U","NORAD_CAT_ID":47383,"ELEMENT_SET_NO":999,"REV_AT_EPOCH":28362,"BSTAR":4.961347e-5,"MEAN_MOTION_DOT":1.146e-5,"MEAN_MOTION_DDOT":0},{"OBJECT_NAME":"SITRO-AIS 9 (SHCHUKIN)","OBJECT_ID":"2023-091AM","EPOCH":"2026-03-09T22:43:02.581824","MEAN_MOTION":15.34387966,"ECCENTRICITY":0.00083665,"INCLINATION":97.518,"RA_OF_ASC_NODE":137.1581,"ARG_OF_PERICENTER":74.1415,"MEAN_ANOMALY":286.0749,"EPHEMERIS_TYPE":0,"CLASSIFICATION_TYPE":"U","NORAD_CAT_ID":57201,"ELEMENT_SET_NO":999,"REV_AT_EPOCH":14951,"BSTAR":0.00072073044,"MEAN_MOTION_DOT":0.00023992,"MEAN_MOTION_DDOT":0}]
